NORAD_CAT_ID,OBJECT_NAME,OBJECT_TYPE,EPOCH,MEAN_MOTION,ECCENTRICITY,INCLINATION,RA_OF_ASC_NODE,ARG_OF_PERICENTER,MEAN_ANOMALY,BSTAR,MEAN_MOTION_DOT,MEAN_MOTION_DDOT,TLE_LINE0,TLE_LINE1,TLE_LINE2,SEMIMAJOR_AXIS,PERIOD,APOGEE,PERIGEE,DECAYED
50822.0,STARLINK-3343,PAYLOAD,2022-08-25 07:59:45,15.08833932,0.0002138,53.2163,210.7506,52.8869,307.2319,7.4547e-05,8.98e-06,0.0,0 STARLINK-3343,1 50822U 22001V   22237.33316078  .00000898  00000-0  74547-4 0  9995,2 50822  53.2163 210.7506 0002138  52.8869 307.2319 15.08833932 35300,6917.899,95.438,541.243,538.285,0.0
50822.0,STARLINK-3343,PAYLOAD,2022-08-26 03:04:22,15.08839089,0.0002174,53.2163,207.1822,53.9313,306.188,7.689e-05,9.36e-06,0.0,0 STARLINK-3343,1 50822U 22001V   22238.12803889  .00000936  00000-0  76890-4 0  9990,2 50822  53.2163 207.1822 0002174  53.9313 306.1880 15.08839089 36678,6917.8830000000025,95.438,541.252,538.244,0.0
50822.0,STARLINK-3343,PAYLOAD,2022-08-26 07:50:31,15.08841114,0.0002194,53.2162,206.2902,53.7321,306.3874,8.0351e-05,9.91e-06,0.0,0 STARLINK-3343,1 50822U 22001V   22238.32675750  .00000991  00000-0  80351-4 0  9994,2 50822  53.2162 206.2902 0002194  53.7321 306.3874 15.08841114 35457,6917.877,95.437,541.26,538.224,0.0
50822.0,STARLINK-3343,PAYLOAD,2022-08-27 06:05:56,15.08834596,0.0002215999999999,53.2162,202.1271,53.8587,306.261,-2.6853e-05,-7.16e-06,0.0,0 STARLINK-3343,1 50822U 22001V   22239.25412557 -.00000716  00000-0 -26853-4 0  9995,2 50822  53.2162 202.1271 0002216  53.8587 306.2610 15.08834596 35599,6917.897,95.438,541.295,538.229,0.0
50822.0,STARLINK-3343,PAYLOAD,2022-08-28 04:21:19,15.08842746,0.0002248,53.2161,197.9632,54.4538,305.6664,4.694400000000001e-07,-2.81e-06,0.0,0 STARLINK-3343,1 50822U 22001V   22240.18148086 -.00000281  00000-0  46944-6 0  9993,2 50822  53.2161 197.9632 0002248  54.4538 305.6664 15.08842746 36980,6917.871999999999,95.437,541.2919999999998,538.182,0.0
50822.0,STARLINK-3343,PAYLOAD,2022-08-28 07:32:06,15.08843164,0.0002261,53.2161,197.3694,54.4031,305.7172,3.9761e-06,-2.25e-06,0.0,0 STARLINK-3343,1 50822U 22001V   22240.31396043 -.00000225  00000-0  39761-5 0  9992,2 50822  53.2161 197.3694 0002261  54.4031 305.7172 15.08843164 35759,6917.871,95.437,541.3,538.172,0.0
50822.0,STARLINK-3343,PAYLOAD,2022-08-29 05:47:30,15.08837455,0.0002283,53.2169,193.2064,56.5117,303.6093,6.973e-05,8.22e-06,0.0,0 STARLINK-3343,1 50822U 22001V   22241.24131986  .00000822  00000-0  69730-4 0  9998,2 50822  53.2169 193.2064 0002283  56.5117 303.6093 15.08837455 35895,6917.888000000001,95.438,541.3330000000002,538.174,0.0
50822.0,STARLINK-3343,PAYLOAD,2022-08-30 07:13:40,15.08842306,0.0002299999999999,53.2166,188.4487,57.2881,302.8332,1.4658e-05,-5.5e-07,0.0,0 STARLINK-3343,1 50822U 22001V   22242.30116084 -.00000055  00000-0  14658-4 0  9996,2 50822  53.2166 188.4487 0002300  57.2881 302.8332 15.08842306 36050,6917.873000000001,95.437,541.3290000000002,538.1469999999998,0.0
50822.0,STARLINK-3343,PAYLOAD,2022-08-30 19:56:46,15.08835183,0.0002261,53.2157,186.0684,65.9569,294.1659,-7.1057e-05,-1.419e-05,0.0,0 STARLINK-3343,1 50822U 22001V   22242.83108816 -.00001419  00000-0 -71057-4 0  9990,2 50822  53.2157 186.0684 0002261  65.9569 294.1659 15.08835183 37385,6917.895,95.438,541.3240000000002,538.196,0.0
50822.0,STARLINK-3343,PAYLOAD,2022-08-31 05:29:04,15.08834426,0.000227,53.2167,184.2846,58.47,301.6514,1.7357e-05,-1.2e-07,0.0,0 STARLINK-3343,1 50822U 22001V   22243.22852800 -.00000012  00000-0  17357-4 0  9993,2 50822  53.2167 184.2846 0002270  58.4700 301.6514 15.08834426 36191,6917.897,95.438,541.3330000000002,538.192,0.0
50822.0,STARLINK-3343,PAYLOAD,2022-09-01 02:09:04,15.08848707,0.0001993,53.2169,180.417,65.3374,294.7826,0.0001018,1.333e-05,0.0,0 STARLINK-3343,1 50822U 22001V   22244.08963416  .00001333  00000-0  10180-3 0  9996,2 50822  53.2169 180.4170 0001993  65.3374 294.7826 15.08848707 37574,6917.854,95.437,541.0980000000002,538.34,0.0
50822.0,STARLINK-3343,PAYLOAD,2022-09-01 05:19:50,15.08845553,0.0002154,53.2169,179.8247,61.167,298.9538,7.267100000000001e-05,8.69e-06,0.0,0 STARLINK-3343,1 50822U 22001V   22244.22211712  .00000869  00000-0  72671-4 0  9994,2 50822  53.2169 179.8247 0002154  61.1670 298.9538 15.08845553 36340,6917.863,95.437,541.219,538.238,0.0
50822.0,STARLINK-3343,PAYLOAD,2022-09-01 19:38:19,15.08837102,0.0002336999999999,53.2176,177.1497,54.0649,306.056,0.00010195,1.334e-05,0.0,0 STARLINK-3343,1 50822U 22001V   22244.81828213  .00001334  00000-0  10195-3 0  9999,2 50822  53.2176 177.1497 0002337  54.0649 306.0560 15.08837102 37681,6917.889,95.438,541.371,538.138,0.0
50822.0,STARLINK-3343,PAYLOAD,2022-09-02 05:10:38,15.08840016,0.0002334,53.2172,175.3676,54.1531,305.9677,1.2256e-06,-2.69e-06,0.0,0 STARLINK-3343,1 50822U 22001V   22245.21572419 -.00000269  00000-0  12256-5 0  9997,2 50822  53.2172 175.3676 0002334  54.1531 305.9677 15.08840016 36497,6917.88,95.438,541.36,538.131,0.0
50822.0,STARLINK-3343,PAYLOAD,2022-09-03 01:50:39,15.08840877,0.0002189,53.2182,171.4995,61.1064,299.0148,-4.5572e-05,-1.014e-05,0.0,0 STARLINK-3343,1 50822U 22001V   22246.07684502 -.00001014  00000-0 -45572-4 0  9995,2 50822  53.2182 171.4995 0002189  61.1064 299.0148 15.08840877 37870,6917.878000000002,95.437,541.257,538.2280000000002,0.0
50822.0,STARLINK-3343,PAYLOAD,2022-09-03 05:01:25,15.08841442,0.0002405,53.218,170.9042,56.3397,303.7825,2.1859e-05,6e-07,0.0,0 STARLINK-3343,1 50822U 22001V   22246.20932333  .00000060  00000-0  21859-4 0  9998,2 50822  53.2180 170.9042 0002405  56.3397 303.7825 15.08841442 36649,6917.876,95.437,541.405,538.077,0.0
50822.0,STARLINK-3343,PAYLOAD,2022-09-03 19:19:53,15.08846754,0.0002133,53.2167,168.2282,61.274,298.8466,5.3687e-05,5.66e-06,0.0,0 STARLINK-3343,1 50822U 22001V   22246.80547765  .00000566  00000-0  53687-4 0  9990,2 50822  53.2167 168.2282 0002133  61.2740 298.8466 15.08846754 36731,6917.86,95.437,541.2,538.249,0.0
50822.0,STARLINK-3343,PAYLOAD,2022-09-04 03:16:49,15.08842634,0.0002139,53.2175,166.7411,61.0096,299.111,-6.0709000000000015e-06,-3.85e-06,0.0,0 STARLINK-3343,1 50822U 22001V   22247.13668159 -.00000385  00000-0 -60709-5 0  9993,2 50822  53.2175 166.7411 0002139  61.0096 299.1110 15.08842634 38033,6917.871999999999,95.437,541.217,538.258,0.0
50822.0,STARLINK-3343,PAYLOAD,2022-09-04 11:13:45,15.08832456,0.0002112999999999,53.2175,165.2545,60.9643,299.156,6.8074e-05,7.95e-06,0.0,0 STARLINK-3343,1 50822U 22001V   22247.46788750  .00000795  00000-0  68074-4 0  9994,2 50822  53.2175 165.2545 0002113  60.9643 299.1560 15.08832456 38088,6917.903,95.438,541.23,538.307,0.0
50822.0,STARLINK-3343,PAYLOAD,2022-09-05 11:04:32,15.08843391,0.0002058,53.218,160.7952,63.7291,296.3912,1.9395e-05,2e-07,0.0,0 STARLINK-3343,1 50822U 22001V   22248.46148537  .00000020  00000-0  19395-4 0  9991,2 50822  53.2180 160.7952 0002058  63.7291 296.3912 15.08843391 38231,6917.87,95.437,541.159,538.311,0.0
50822.0,STARLINK-3343,PAYLOAD,2022-09-06 04:33:47,15.08834725,0.0002025,53.218,157.5252,62.9615,297.1584,2.666800000000001e-05,1.36e-06,0.0,0 STARLINK-3343,1 50822U 22001V   22249.19013132  .00000136  00000-0  26668-4 0  9993,2 50822  53.2180 157.5252 0002025  62.9615 297.1584 15.08834725 38340,6917.897,95.438,541.1619999999998,538.361,0.0
50822.0,STARLINK-3343,PAYLOAD,2022-09-06 23:38:26,15.0882772,0.0001942,53.217,153.9563,58.2654,301.8527,-2.3047e-05,-6.55e-06,0.0,0 STARLINK-3343,1 50822U 22001V   22249.98502318 -.00000655  00000-0 -23047-4 0  9995,2 50822  53.2170 153.9563 0001942  58.2654 301.8527 15.08827720 38462,6917.918000000002,95.438,541.126,538.439,0.0
50822.0,STARLINK-3343,PAYLOAD,2022-09-07 02:49:11,15.088332199999998,0.0002037,53.2168,153.361,52.9126,307.2052,7.1618e-05,8.52e-06,0.0,0 STARLINK-3343,1 50822U 22001V   22250.11749738  .00000852  00000-0  71618-4 0  9995,2 50822  53.2168 153.3610 0002037  52.9126 307.2052 15.08833220 37236,6917.901,95.438,541.175,538.357,0.0
50822.0,STARLINK-3343,PAYLOAD,2022-09-08 10:36:54,15.08841339,0.0001764999999999,53.2163,147.4132,56.7253,303.3908,0.00010014,1.306e-05,0.0,0 STARLINK-3343,1 50822U 22001V   22251.44229204  .00001306  00000-0  10014-3 0  9990,2 50822  53.2163 147.4132 0001765  56.7253 303.3908 15.08841339 38681,6917.876,95.437,540.962,538.52,0.0
50822.0,STARLINK-3343,PAYLOAD,2022-09-09 10:27:40,15.08844361,0.0001491,53.2174,142.9504,63.82100000000001,296.2935,4.8356e-05,4.82e-06,0.0,0 STARLINK-3343,1 50822U 22001V   22252.43589081  .00000482  00000-0  48356-4 0  9997,2 50822  53.2174 142.9504 0001491  63.8210 296.2935 15.08844361 37580,6917.8669999999975,95.437,540.764,538.701,0.0
50822.0,STARLINK-3343,PAYLOAD,2022-09-09 16:49:13,15.08840261,0.0001504,53.2173,141.7613,64.429,295.6858,2.2762e-05,7.4e-07,0.0,0 STARLINK-3343,1 50822U 22001V   22252.70085371  .00000074  00000-0  22762-4 0  9990,2 50822  53.2173 141.7613 0001504  64.4290 295.6858 15.08840261 38872,6917.88,95.438,540.785,538.7040000000002,0.0
50822.0,STARLINK-3343,PAYLOAD,2022-09-09 19:59:59,15.08841906,0.0001535,53.217,141.1671,62.7849,297.33,3.4335e-05,2.59e-06,0.0,0 STARLINK-3343,1 50822U 22001V   22252.83333217  .00000259  00000-0  34335-4 0  9993,2 50822  53.2170 141.1671 0001535  62.7849 297.3300 15.08841906 37644,6917.875,95.437,540.8009999999998,538.678,0.0
50822.0,STARLINK-3343,PAYLOAD,2022-09-10 02:21:32,15.0884274,0.000168,53.2172,139.9785,59.6174,300.4984,3.9164e-05,3.35e-06,0.0,0 STARLINK-3343,1 50822U 22001V   22253.09829145  .00000335  00000-0  39164-4 0  9992,2 50822  53.2172 139.9785 0001680  59.6174 300.4984 15.08842740 37689,6917.871999999999,95.437,540.899,538.575,0.0
50822.0,STARLINK-3343,PAYLOAD,2022-09-10 19:50:46,15.08841719,0.000169,53.217,136.708,58.4818,301.6339,3.3916e-05,2.52e-06,0.0,0 STARLINK-3343,1 50822U 22001V   22253.82693087  .00000252  00000-0  33916-4 0  9994,2 50822  53.2170 136.7080 0001690  58.4818 301.6339 15.08841719 37797,6917.875,95.437,540.909,538.571,0.0
